{"type": "FeatureCollection", "features": [ {"type": "Feature", "properties": {"norad_id": 66966, "name": "STARLINK-36139", "group": "last-30-days", "lat": -21.030459365362326, "lon": -18.022247350971153, "alt_km": 306.6183881249053, "timestamp": "2025-12-17T13:48:36.281970+00:00", "meta": {"OBJECT_NAME": "STARLINK-36139", "OBJECT_ID": "2025-288H", "EPOCH": "2025-12-16T14:00:03.000384", "MEAN_MOTION": 15.91510909, "ECCENTRICITY": 0.00016164, "INCLINATION": 43.001, "RA_OF_ASC_NODE": 143.7657, "ARG_OF_PERICENTER": 263.363, "MEAN_ANOMALY": 22.1483, "EPHEMERIS_TYPE": 0, "CLASSIFICATION_TYPE": "U", "NORAD_CAT_ID": 66966, "ELEMENT_SET_NO": 999, "REV_AT_EPOCH": 245, "BSTAR": -0.0041716004, "MEAN_MOTION_DOT": -0.01395724, "MEAN_MOTION_DDOT": 0.0005533968}, "tle": {"line1": "1 66966U 25288H   25350.58336806 -.01395724  55340-3 -41716-2 0  9996", "line2": "2 66966  43.0010 143.7657 0001616 263.3630  22.1483 15.91510909  2454"}}, "geometry": {"type": "Point", "coordinates": [-18.022247350971153, -21.030459365362326]}}, {"type": "Feature", "properties": {"norad_id": 66967, "name": "STARLINK-36136", "group": "last-30-days", "lat": -22.227130382602372, "lon": -16.38490154999894, "alt_km": 306.5461018492233, "timestamp": "2025-12-17T13:48:36.281980+00:00", "meta": {"OBJECT_NAME": "STARLINK-36136", "OBJECT_ID": "2025-288J", "EPOCH": "2025-12-16T14:00:03.000384", "MEAN_MOTION": 15.91570387, "ECCENTRICITY": 0.00016567, "INCLINATION": 43.001, "RA_OF_ASC_NODE": 143.761, "ARG_OF_PERICENTER": 261.6104, "MEAN_ANOMALY": 25.703, "EPHEMERIS_TYPE": 0, "CLASSIFICATION_TYPE": "U", "NORAD_CAT_ID": 66967, "ELEMENT_SET_NO": 999, "REV_AT_EPOCH": 245, "BSTAR": -0.0042269257, "MEAN_MOTION_DOT": -0.01418343, "MEAN_MOTION_DDOT": 0.0005702704}, "tle": {"line1": "1 66967U 25288J   25350.58336806 -.01418343  57027-3 -42269-2 0  9998", "line2": "2 66967  43.0010 143.7610 0001656 261.6104  25.7030 15.91570387  2458"}}, "geometry": {"type": "Point", "coordinates": [-16.38490154999894, -22.227130382602372]}}, {"type": "Feature", "properties": {"norad_id": 66968, "name": "STARLINK-36152", "group": "last-30-days", "lat": -23.780657013330224, "lon": -14.180485749824745, "alt_km": 306.84292346638813, "timestamp": "2025-12-17T13:48:36.281989+00:00", "meta": {"OBJECT_NAME": "STARLINK-36152", "OBJECT_ID": "2025-288K", "EPOCH": "2025-12-16T14:00:03.000384", "MEAN_MOTION": 15.91628269, "ECCENTRICITY": 0.00016391, "INCLINATION": 43.0011, "RA_OF_ASC_NODE": 143.755, "ARG_OF_PERICENTER": 272.5242, "MEAN_ANOMALY": 17.1845, "EPHEMERIS_TYPE": 0, "CLASSIFICATION_TYPE": "U", "NORAD_CAT_ID": 66968, "ELEMENT_SET_NO": 999, "REV_AT_EPOCH": 245, "BSTAR": -0.0042486776, "MEAN_MOTION_DOT": -0.01429785, "MEAN_MOTION_DDOT": 0.00057905283}, "tle": {"line1": "1 66968U 25288K   25350.58336806 -.01429785  57905-3 -42487-2 0  9998", "line2": "2 66968  43.0011 143.7550 0001639 272.5242  17.1845 15.91628269  2450"}}, "geometry": {"type": "Point", "coordinates": [-14.180485749824745, -23.780657013330224]}}, {"type": "Feature", "properties": {"norad_id": 66969, "name": "STARLINK-36149", "group": "last-30-days", "lat": -30.03796532624972, "lon": -4.075013574296854, "alt_km": 306.4597259831489, "timestamp": "2025-12-17T13:48:36.281998+00:00", "meta": {"OBJECT_NAME": "STARLINK-36149", "OBJECT_ID": "2025-288L", "EPOCH": "2025-12-16T14:00:03.000384", "MEAN_MOTION": 15.91906646, "ECCENTRICITY": 0.00016124, "INCLINATION": 43.001, "RA_OF_ASC_NODE": 143.7294, "ARG_OF_PERICENTER": 271.841, "MEAN_ANOMALY": 28.0202, "EPHEMERIS_TYPE": 0, "CLASSIFICATION_TYPE": "U", "NORAD_CAT_ID": 66969, "ELEMENT_SET_NO": 999, "REV_AT_EPOCH": 245, "BSTAR": -0.0043315647, "MEAN_MOTION_DOT": -0.01478305, "MEAN_MOTION_DDOT": 0.00061725758}, "tle": {"line1": "1 66969U 25288L   25350.58336806 -.01478305  61726-3 -43316-2 0  9999", "line2": "2 66969  43.0010 143.7294 0001612 271.8410  28.0202 15.91906646  2451"}}, "geometry": {"type": "Point", "coordinates": [-4.075013574296854, -30.03796532624972]}}, {"type": "Feature", "properties": {"norad_id": 66970, "name": "STARLINK-35703", "group": "last-30-days", "lat": -34.47300379551313, "lon": 5.007224693384083, "alt_km": 305.9344449528826, "timestamp": "2025-12-17T13:48:36.282008+00:00", "meta": {"OBJECT_NAME": "STARLINK-35703", "OBJECT_ID": "2025-288M", "EPOCH": "2025-12-16T14:00:03.000384", "MEAN_MOTION": 15.92129761, "ECCENTRICITY": 0.00016434, "INCLINATION": 43.0011, "RA_OF_ASC_NODE": 143.7085, "ARG_OF_PERICENTER": 268.0465, "MEAN_ANOMALY": 39.9977, "EPHEMERIS_TYPE": 0, "CLASSIFICATION_TYPE": "U", "NORAD_CAT_ID": 66970, "ELEMENT_SET_NO": 999, "REV_AT_EPOCH": 245, "BSTAR": -0.0043672224, "MEAN_MOTION_DOT": -0.01507537, "MEAN_MOTION_DDOT": 0.00064122949}, "tle": {"line1": "1 66970U 25288M   25350.58336806 -.01507537  64123-3 -43672-2 0  9990", "line2": "2 66970  43.0011 143.7085 0001643 268.0465  39.9977 15.92129761  2450"}}, "geometry": {"type": "Point", "coordinates": [5.007224693384083, -34.47300379551313]}}, {"type": "Feature", "properties": {"norad_id": 66971, "name": "STARLINK-35678", "group": "last-30-days", "lat": -24.667836121159066, "lon": -12.876791796199806, "alt_km": 306.6382779089936, "timestamp": "2025-12-17T13:48:36.282017+00:00", "meta": {"OBJECT_NAME": "STARLINK-35678", "OBJECT_ID": "2025-288N", "EPOCH": "2025-12-16T14:00:03.000384", "MEAN_MOTION": 15.91677671, "ECCENTRICITY": 0.00016403, "INCLINATION": 43.0014, "RA_OF_ASC_NODE": 143.752, "ARG_OF_PERICENTER": 268.1448, "MEAN_ANOMALY": 22.9013, "EPHEMERIS_TYPE": 0, "CLASSIFICATION_TYPE": "U", "NORAD_CAT_ID": 66971, "ELEMENT_SET_NO": 999, "REV_AT_EPOCH": 245, "BSTAR": -0.0042640491, "MEAN_MOTION_DOT": -0.01438535, "MEAN_MOTION_DDOT": 0.00058584621}, "tle": {"line1": "1 66971U 25288N   25350.58336806 -.01438535  58585-3 -42640-2 0  9991", "line2": "2 66971  43.0014 143.7520 0001640 268.1448  22.9013 15.91677671  2457"}}, "geometry": {"type": "Point", "coordinates": [-12.876791796199806, -24.667836121159066]}}, {"type": "Feature", "properties": {"norad_id": 66972, "name": "STARLINK-34846", "group": "last-30-days", "lat": -26.16186480861668, "lon": -10.59791099432671, "alt_km": 306.4928323003387, "timestamp": "2025-12-17T13:48:36.282029+00:00", "meta": {"OBJECT_NAME": "STARLINK-34846", "OBJECT_ID": "2025-288P", "EPOCH": "2025-12-16T14:00:03.000384", "MEAN_MOTION": 15.91736626, "ECCENTRICITY": 0.00016766, "INCLINATION": 43.0012, "RA_OF_ASC_NODE": 143.7459, "ARG_OF_PERICENTER": 266.1926, "MEAN_ANOMALY": 27.2212, "EPHEMERIS_TYPE": 0, "CLASSIFICATION_TYPE": "U", "NORAD_CAT_ID": 66972, "ELEMENT_SET_NO": 999, "REV_AT_EPOCH": 245, "BSTAR": -0.0042777567, "MEAN_MOTION_DOT": -0.01447482, "MEAN_MOTION_DDOT": 0.0005928824}, "tle": {"line1": "1 66972U 25288P   25350.58336806 -.01447482  59288-3 -42778-2 0  9996", "line2": "2 66972  43.0012 143.7459 0001676 266.1926  27.2212 15.91736626  2450"}}, "geometry": {"type": "Point", "coordinates": [-10.59791099432671, -26.16186480861668]}}, {"type": "Feature", "properties": {"norad_id": 66973, "name": "STARLINK-35778", "group": "last-30-days", "lat": -27.467824633491052, "lon": -8.508809447620893, "alt_km": 306.4604037205736, "timestamp": "2025-12-17T13:48:36.282038+00:00", "meta": {"OBJECT_NAME": "STARLINK-35778", "OBJECT_ID": "2025-288Q", "EPOCH": "2025-12-16T14:00:03.000384", "MEAN_MOTION": 15.91794298, "ECCENTRICITY": 0.00017107, "INCLINATION": 43.0013, "RA_OF_ASC_NODE": 143.7406, "ARG_OF_PERICENTER": 267.9414, "MEAN_ANOMALY": 27.5857, "EPHEMERIS_TYPE": 0, "CLASSIFICATION_TYPE": "U", "NORAD_CAT_ID": 66973, "ELEMENT_SET_NO": 999, "REV_AT_EPOCH": 245, "BSTAR": -0.004298407, "MEAN_MOTION_DOT": -0.01458705, "MEAN_MOTION_DDOT": 0.00060167468}, "tle": {"line1": "1 66973U 25288Q   25350.58336806 -.01458705  60167-3 -42984-2 0  9994", "line2": "2 66973  43.0013 143.7406 0001710 267.9414  27.5857 15.91794298  2451"}}, "geometry": {"type": "Point", "coordinates": [-8.508809447620893, -27.467824633491052]}}, {"type": "Feature", "properties": {"norad_id": 66974, "name": "STARLINK-35780", "group": "last-30-days", "lat": -28.695577442547457, "lon": -6.449383114560262, "alt_km": 306.4004688251862, "timestamp": "2025-12-17T13:48:36.282057+00:00", "meta": {"OBJECT_NAME": "STARLINK-35780", "OBJECT_ID": "2025-288R", "EPOCH": "2025-12-16T14:00:03.000384", "MEAN_MOTION": 15.91848995, "ECCENTRICITY": 0.00016659, "INCLINATION": 43.0015, "RA_OF_ASC_NODE": 143.7357, "ARG_OF_PERICENTER": 267.747, "MEAN_ANOMALY": 29.8137, "EPHEMERIS_TYPE": 0, "CLASSIFICATION_TYPE": "U", "NORAD_CAT_ID": 66974, "ELEMENT_SET_NO": 999, "REV_AT_EPOCH": 245, "BSTAR": -0.0043149367, "MEAN_MOTION_DOT": -0.01468355, "MEAN_MOTION_DDOT": 0.00060931785}, "tle": {"line1": "1 66974U 25288R   25350.58336806 -.01468355  60932-3 -43149-2 0  9991", "line2": "2 66974  43.0015 143.7357 0001665 267.7470  29.8137 15.91848995  2458"}}, "geometry": {"type": "Point", "coordinates": [-6.449383114560262, -28.695577442547457]}}, {"type": "Feature", "properties": {"norad_id": 66975, "name": "STARLINK-35777", "group": "last-30-days", "lat": -31.07441215019531, "lon": -2.1417237375285, "alt_km": 306.3272626979342, "timestamp": "2025-12-17T13:48:36.282066+00:00", "meta": {"OBJECT_NAME": "STARLINK-35777", "OBJECT_ID": "2025-288S", "EPOCH": "2025-12-16T14:00:03.000384", "MEAN_MOTION": 15.91970964, "ECCENTRICITY": 0.00016506, "INCLINATION": 43.0016, "RA_OF_ASC_NODE": 143.725, "ARG_OF_PERICENTER": 270.8357, "MEAN_ANOMALY": 30.8122, "EPHEMERIS_TYPE": 0, "CLASSIFICATION_TYPE": "U", "NORAD_CAT_ID": 66975, "ELEMENT_SET_NO": 999, "REV_AT_EPOCH": 245, "BSTAR": -0.004362842, "MEAN_MOTION_DOT": -0.01493789, "MEAN_MOTION_DDOT": 0.00062956716}, "tle": {"line1": "1 66975U 25288S   25350.58336806 -.01493789  62957-3 -43628-2 0  9992", "line2": "2 66975  43.0016 143.7250 0001650 270.8357  30.8122 15.91970964  2453"}}, "geometry": {"type": "Point", "coordinates": [-2.1417237375285, -31.07441215019531]}}]}